NORAD_CAT_ID,OBJECT_NAME,OBJECT_TYPE,EPOCH,MEAN_MOTION,ECCENTRICITY,INCLINATION,RA_OF_ASC_NODE,ARG_OF_PERICENTER,MEAN_ANOMALY,BSTAR,MEAN_MOTION_DOT,MEAN_MOTION_DDOT,TLE_LINE0,TLE_LINE1,TLE_LINE2,SEMIMAJOR_AXIS,PERIOD,APOGEE,PERIGEE,DECAYED
56818.0,STARLINK-6028,PAYLOAD,2024-04-27 12:45:01,14.98325891,0.0002735,69.9991,261.715,273.9625,86.1221,7.6059e-05,8.15e-06,0.0,0 STARLINK-6028,1 56818U 23078BD  24118.53126505  .00000815  00000-0  76059-4 0  9996,2 56818  69.9991 261.7150 0002735 273.9625  86.1221 14.98325891 50911,6950.206,96.107,573.971,570.17,0.0
56818.0,STARLINK-6028,PAYLOAD,2024-04-27 14:21:09,14.98324845,0.0002846,70.0,261.5499,268.6153,91.468,-1.3618e-05,-2.55e-06,0.0,0 STARLINK-6028,1 56818U 23078BD  24118.59802763 -.00000255  00000-0 -13618-4 0  9991,2 56818  70.0000 261.5499 0002846 268.6153  91.4680 14.98324845 51354,6950.209,96.107,574.052,570.096,0.0
56818.0,STARLINK-6028,PAYLOAD,2024-04-27 19:09:33,14.98331469,0.0002839,69.9999,261.0441,268.4874,91.596,5.3217e-05,5.42e-06,0.0,0 STARLINK-6028,1 56818U 23078BD  24118.79830196  .00000542  00000-0  53217-4 0  9990,2 56818  69.9999 261.0441 0002839 268.4874  91.5960 14.98331469 51385,6950.188,96.107,574.027,570.08,0.0
56818.0,STARLINK-6028,PAYLOAD,2024-04-28 12:47:02,14.98325294,0.0002827,70.0001,259.194,271.4682,88.6153,-6.6752e-05,-8.89e-06,0.0,0 STARLINK-6028,1 56818U 23078BD  24119.53266982 -.00000889  00000-0 -66752-4 0  9993,2 56818  70.0001 259.1940 0002827 271.4682  88.6153 14.98325294 51067,6950.207,96.107,574.037,570.108,0.0
56818.0,STARLINK-6028,PAYLOAD,2024-04-28 14:23:10,14.98324297,0.0002734,70.0002,259.0256,269.5792,90.5054,-5.126e-05,-7.04e-06,0.0,0 STARLINK-6028,1 56818U 23078BD  24119.59943022 -.00000704  00000-0 -51260-4 0  9990,2 56818  70.0002 259.0256 0002734 269.5792  90.5054 14.98324297 51507,6950.211,96.107,573.976,570.175,0.0
56818.0,STARLINK-6028,PAYLOAD,2024-04-28 19:11:34,14.98326055,0.0002829,70.0003,258.5205,270.6744,89.4091,-1.6702e-05,-2.92e-06,0.0,0 STARLINK-6028,1 56818U 23078BD  24119.79970870 -.00000292  00000-0 -16702-4 0  9997,2 56818  70.0003 258.5205 0002829 270.6744  89.4091 14.98326055 51536,6950.205,96.107,574.036,570.104,0.0
56818.0,STARLINK-6028,PAYLOAD,2024-04-29 12:49:03,14.98327918,0.0002815,70.0003,256.6688,276.349,83.7348,0.00017957,2.05e-05,0.0,0 STARLINK-6028,1 56818U 23078BD  24120.53406361  .00002050  00000-0  17957-3 0  9994,2 56818  70.0003 256.6688 0002815 276.3490  83.7348 14.98327918 51212,6950.199,96.107,574.021,570.108,0.0
56818.0,STARLINK-6028,PAYLOAD,2024-04-29 14:25:11,14.98328292,0.0002815,70.0003,256.5005,276.3322,83.7516,0.00018139,2.072e-05,0.0,0 STARLINK-6028,1 56818U 23078BD  24120.60082346  .00002072  00000-0  18139-3 0  9992,2 56818  70.0003 256.5005 0002815 276.3322  83.7516 14.98328292 51659,6950.198,96.107,574.02,570.107,0.0
56818.0,STARLINK-6028,PAYLOAD,2024-04-29 19:13:35,14.98334026,0.0002897,70.0003,255.9957,275.3267,84.7561,0.00013928,1.569e-05,0.0,0 STARLINK-6028,1 56818U 23078BD  24120.80110015  .00001569  00000-0  13928-3 0  9990,2 56818  70.0003 255.9957 0002897 275.3267  84.7561 14.98334026 51681,6950.18,96.107,574.059,570.032,0.0
56818.0,STARLINK-6028,PAYLOAD,2024-04-30 14:27:12,14.9832973,0.000297,70.0003,253.9758,274.2228,85.8592,0.00015973,1.813e-05,0.0,0 STARLINK-6028,1 56818U 23078BD  24121.60222277  .00001813  00000-0  15973-3 0  9997,2 56818  70.0003 253.9758 0002970 274.2228  85.8592 14.98329730 51801,6950.194,96.107,574.123,569.995,0.0
56818.0,STARLINK-6028,PAYLOAD,2024-04-30 17:39:28,14.98332249,0.0002954,70.0004,253.6397,272.9047,87.1774,0.0001438,1.623e-05,0.0,0 STARLINK-6028,1 56818U 23078BD  24121.73574147  .00001623  00000-0  14380-3 0  9997,2 56818  70.0004 253.6397 0002954 272.9047  87.1774 14.98332249 51394,6950.186,96.107,574.104,569.998,0.0
56818.0,STARLINK-6028,PAYLOAD,2024-05-01 01:40:08,14.9833458,0.0002968,70.0004,252.798,272.8246,87.2573,0.00011391,1.267e-05,0.0,0 STARLINK-6028,1 56818U 23078BD  24122.06953988  .00001267  00000-0  11391-3 0  9991,2 56818  70.0004 252.7980 0002968 272.8246  87.2573 14.98334580 51878,6950.179,96.107,574.107,569.981,0.0
56818.0,STARLINK-6028,PAYLOAD,2024-05-01 19:17:36,14.98341428,0.0002908,70.0007,250.9472,269.1311,90.9515,6.7654e-05,7.15e-06,0.0,0 STARLINK-6028,1 56818U 23078BD  24122.80389244  .00000715  00000-0  67654-4 0  9992,2 56818  70.0007 250.9472 0002908 269.1311  90.9515 14.98341428 51554,6950.158,96.106,574.044,570.001,0.0
56818.0,STARLINK-6028,PAYLOAD,2024-05-02 01:42:09,14.98333453,0.0002973,70.0004,250.2736,267.4219,92.66,-9.1235e-06,-2.02e-06,0.0,0 STARLINK-6028,1 56818U 23078BD  24123.07093757 -.00000202  00000-0 -91235-5 0  9999,2 56818  70.0004 250.2736 0002973 267.4219  92.6600 14.98333453 51594,6950.182,96.107,574.114,569.981,0.0
56818.0,STARLINK-6028,PAYLOAD,2024-05-02 12:55:05,14.98326266,0.000291,70.0005,249.0948,266.9432,93.1394,-5.0793e-05,-6.99e-06,0.0,0 STARLINK-6028,1 56818U 23078BD  24123.53826276 -.00000699  00000-0 -50793-4 0  9993,2 56818  70.0005 249.0948 0002910 266.9432  93.1394 14.98326266 51666,6950.204,96.107,574.092,570.047,0.0
56818.0,STARLINK-6028,PAYLOAD,2024-05-02 14:31:13,14.98328446,0.0002902,70.0004,248.9269,265.911,94.1717,-2.9077e-05,-4.4e-06,0.0,0 STARLINK-6028,1 56818U 23078BD  24123.60502075 -.00000440  00000-0 -29077-4 0  9994,2 56818  70.0004 248.9269 0002902 265.9110  94.1717 14.98328446 52104,6950.198,96.107,574.08,570.046,0.0
56818.0,STARLINK-6028,PAYLOAD,2024-05-03 01:44:09,14.9833514,0.0003086,69.9999,247.7483,268.1993,91.8813,3.3482e-05,3.07e-06,0.0,0 STARLINK-6028,1 56818U 23078BD  24124.07233383  .00000307  00000-0  33482-4 0  9994,2 56818  69.9999 247.7483 0003086 268.1993  91.8813 14.98335140 51746,6950.177,96.107,574.187,569.897,0.0
56818.0,STARLINK-6028,PAYLOAD,2024-05-03 14:33:13,14.98336945,0.0003121,69.9998,246.4021,268.7448,91.3353,0.00016458,1.872e-05,0.0,0 STARLINK-6028,1 56818U 23078BD  24124.60640581  .00001872  00000-0  16458-3 0  9996,2 56818  69.9998 246.4021 0003121 268.7448  91.3353 14.98336945 52255,6950.171,96.107,574.206,569.867,0.0
56818.0,STARLINK-6028,PAYLOAD,2024-05-03 17:45:29,14.98340141,0.0003154,69.9998,246.0655,269.1408,90.939,0.00022623,2.608e-05,0.0,0 STARLINK-6028,1 56818U 23078BD  24124.73992184  .00002608  00000-0  22623-3 0  9998,2 56818  69.9998 246.0655 0003154 269.1408  90.9390 14.98340141 51844,6950.162,96.106,574.219,569.834,0.0
56818.0,STARLINK-6028,PAYLOAD,2024-05-04 01:46:10,14.98335377,0.000281,69.9995,245.2212,269.0522,91.0315,8.8376e-05,9.62e-06,0.0,0 STARLINK-6028,1 56818U 23078BD  24125.07372822  .00000962  00000-0  88376-4 0  9996,2 56818  69.9995 245.2212 0002810 269.0522  91.0315 14.98335377 51894,6950.176,96.107,573.994,570.088,0.0
56818.0,STARLINK-6028,PAYLOAD,2024-05-04 12:59:07,14.98320754,0.0003052,69.9999,244.0458,263.5643,96.5168,1.3142e-05,6.4e-07,0.0,0 STARLINK-6028,1 56818U 23078BD  24125.54106112  .00000064  00000-0  13142-4 0  9997,2 56818  69.9999 244.0458 0003052 263.5643  96.5168 14.98320754 51966,6950.221,96.108,574.208,569.965,0.0
56818.0,STARLINK-6028,PAYLOAD,2024-05-05 13:01:08,14.98336307,0.0003166,69.9997,241.5205,269.2382,90.8415,4.964e-05,4.99e-06,0.0,0 STARLINK-6028,1 56818U 23078BD  24126.54245380  .00000499  00000-0  49640-4 0  9993,2 56818  69.9997 241.5205 0003166 269.2382  90.8415 14.98336307 52116,6950.173,96.107,574.239,569.838,0.0
56818.0,STARLINK-6028,PAYLOAD,2024-05-05 14:37:15,14.98340144,0.0003138,69.9998,241.3531,267.8966,92.1833,5.2971e-05,5.39e-06,0.0,0 STARLINK-6028,1 56818U 23078BD  24126.60921102  .00000539  00000-0  52971-4 0  9999,2 56818  69.9998 241.3531 0003138 267.8966  92.1833 14.98340144 52559,6950.162,96.106,574.207,569.846,0.0
56818.0,STARLINK-6028,PAYLOAD,2024-05-05 16:13:23,14.98342621,0.0003101,69.9998,241.1848,267.2717,92.8088,7.642e-05,8.19e-06,0.0,0 STARLINK-6028,1 56818U 23078BD  24126.67596876  .00000819  00000-0  76420-4 0  9998,2 56818  69.9998 241.1848 0003101 267.2717  92.8088 14.98342621 52568,6950.154,96.106,574.174,569.864,0.0
56818.0,STARLINK-6028,PAYLOAD,2024-05-06 13:03:09,14.98326877,0.00029,70.0003,238.9953,270.4376,89.6451,0.00026154,3.029e-05,0.0,0 STARLINK-6028,1 56818U 23078BD  24127.54385885  .00003029  00000-0  26154-3 0  9995,2 56818  70.0003 238.9953 0002900 270.4376  89.6451 14.98326877 52262,6950.203,96.107,574.083,570.052,0.0
56818.0,STARLINK-6028,PAYLOAD,2024-05-06 17:51:33,14.98336721,0.0002863,70.0017,238.491,269.2533,90.8298,0.00036581,4.275e-05,0.0,0 STARLINK-6028,1 56818U 23078BD  24127.74413443  .00004275  00000-0  36581-3 0  9998,2 56818  70.0017 238.4910 0002863 269.2533  90.8298 14.98336721 52299,6950.172,96.107,574.027,570.047,0.0
56818.0,STARLINK-6028,PAYLOAD,2024-05-07 00:16:04,14.98350517,0.0002936,70.0019,237.8172,270.2028,89.8794,-0.00051564,-6.243e-05,0.0,0 STARLINK-6028,1 56818U 23078BD  24128.01116305 -.00006243  00000-0 -51564-3 0  9993,2 56818  70.0019 237.8172 0002936 270.2028  89.8794 14.98350517 52339,6950.129,96.106,574.035,569.954,0.0
56818.0,STARLINK-6028,PAYLOAD,2024-05-07 13:05:10,14.98331691,0.000257,70.0009,236.4711,261.9306,98.1561,2.7398e-05,2.34e-06,0.0,0 STARLINK-6028,1 56818U 23078BD  24128.54525854  .00000234  00000-0  27398-4 0  9995,2 56818  70.0009 236.4711 0002570 261.9306  98.1561 14.98331691 52418,6950.188,96.107,573.839,570.266,0.0
56818.0,STARLINK-6028,PAYLOAD,2024-05-07 14:41:18,14.9833199,0.0002557,70.0009,236.3028,262.4626,97.6242,2.649e-05,2.23e-06,0.0,0 STARLINK-6028,1 56818U 23078BD  24128.61201811  .00000223  00000-0  26490-4 0  9997,2 56818  70.0009 236.3028 0002557 262.4626  97.6242 14.98331990 52854,6950.187,96.107,573.829,570.275,0.0
56818.0,STARLINK-6028,PAYLOAD,2024-05-07 16:17:25,14.98360325,0.0002721,70.0011,236.1347,259.0783,101.007,-0.00053121,-6.43e-05,0.0,0 STARLINK-6028,1 56818U 23078BD  24128.67876679 -.00006430  00000-0 -53121-3 0  9991,2 56818  70.0011 236.1347 0002721 259.0783 101.0070 14.98360325 52435,6950.099,96.105,573.855,570.073,0.0
